{
  "type": "FeatureCollection",
  "features": [
    {
      "type": "Feature",
      "properties": {
        "norad_id": 37781,
        "name": "HAIYANG-2A",
        "group": "resource",
        "lat": 53.649052081792455,
        "lon": -165.55563681408515,
        "alt_km": 962.3372073343144,
        "timestamp": "2025-12-26T19:22:38.550937+00:00",
        "meta_object_name": "HAIYANG-2A",
        "meta_object_id": "2011-043A",
        "meta_epoch": "2025-12-26T15:17:21.227136",
        "meta_mean_motion": 13.78835587,
        "meta_eccentricity": 0.00015604,
        "meta_inclination": 99.3382,
        "meta_ra_of_asc_node": 1.3573,
        "meta_arg_of_pericenter": 64.5543,
        "meta_mean_anomaly": 295.5769,
        "meta_ephemeris_type": 0,
        "meta_classification_type": "U",
        "meta_norad_cat_id": 37781,
        "meta_element_set_no": 999,
        "meta_rev_at_epoch": 72290,
        "meta_bstar": -0.00016944319,
        "meta_mean_motion_dot": -2.17e-06,
        "meta_mean_motion_ddot": 0,
        "tle_line1": "1 37781U 11043A   25360.63705124 -.00000217  00000+0 -16944-3 0  9997",
        "tle_line2": "2 37781  99.3382   1.3573 0001560  64.5543 295.5769 13.78835587722908"
      },
      "geometry": {
        "type": "Point",
        "coordinates": [
          -165.55563681408515,
          53.649052081792455
        ]
      }
    },
    {
      "type": "Feature",
      "properties": {
        "norad_id": 37791,
        "name": "RASAT",
        "group": "resource",
        "lat": 64.79979118573445,
        "lon": 72.32164954324556,
        "alt_km": 650.5303257798405,
        "timestamp": "2025-12-26T19:22:38.550947+00:00",
        "meta_object_name": "RASAT",
        "meta_object_id": "2011-044D",
        "meta_epoch": "2025-12-26T16:32:11.332320",
        "meta_mean_motion": 14.67929556,
        "meta_eccentricity": 0.00212483,
        "meta_inclination": 98.0638,
        "meta_ra_of_asc_node": 89.7393,
        "meta_arg_of_pericenter": 22.7068,
        "meta_mean_anomaly": 138.0558,
        "meta_ephemeris_type": 0,
        "meta_classification_type": "U",
        "meta_norad_cat_id": 37791,
        "meta_element_set_no": 999,
        "meta_rev_at_epoch": 76787,
        "meta_bstar": 0.00017035912,
        "meta_mean_motion_dot": 9.29e-06,
        "meta_mean_motion_ddot": 0,
        "tle_line1": "1 37791U 11044D   25360.68902005  .00000929  00000+0  17036-3 0  9992",
        "tle_line2": "2 37791  98.0638  89.7393 0021248  22.7068 138.0558 14.67929556767873"
      },
      "geometry": {
        "type": "Point",
        "coordinates": [
          72.32164954324556,
          64.79979118573445
        ]
      }
    },
    {
      "type": "Feature",
      "properties": {
        "norad_id": 37841,
        "name": "SRMSAT",
        "group": "resource",
        "lat": 19.068561546973793,
        "lon": 94.9351539758675,
        "alt_km": 841.9155407276685,
        "timestamp": "2025-12-26T19:22:38.550958+00:00",
        "meta_object_name": "SRMSAT",
        "meta_object_id": "2011-058D",
        "meta_epoch": "2025-12-26T02:10:29.616384",
        "meta_mean_motion": 14.11515861,
        "meta_eccentricity": 0.00119908,
        "meta_inclination": 19.9732,
        "meta_ra_of_asc_node": 27.151,
        "meta_arg_of_pericenter": 99.3628,
        "meta_mean_anomaly": 283.7397,
        "meta_ephemeris_type": 0,
        "meta_classification_type": "U",
        "meta_norad_cat_id": 37841,
        "meta_element_set_no": 999,
        "meta_rev_at_epoch": 73333,
        "meta_bstar": 9.1637558e-05,
        "meta_mean_motion_dot": 4.34e-06,
        "meta_mean_motion_ddot": 0,
        "tle_line1": "1 37841U 11058D   25360.09062056  .00000434  00000+0  91638-4 0  9993",
        "tle_line2": "2 37841  19.9732  27.1510 0011990  99.3628 283.7397 14.11515861733330"
      },
      "geometry": {
        "type": "Point",
        "coordinates": [
          94.9351539758675,
          19.068561546973793
        ]
      }
    },
    {
      "type": "Feature",
      "properties": {
        "norad_id": 38012,
        "name": "PLEIADES 1A",
        "group": "resource",
        "lat": 70.00350079484349,
        "lon": -83.35810450277032,
        "alt_km": 690.3421023139799,
        "timestamp": "2025-12-26T19:22:38.550968+00:00",
        "meta_object_name": "PLEIADES 1A",
        "meta_object_id": "2011-076F",
        "meta_epoch": "2025-12-26T16:17:18.041856",
        "meta_mean_motion": 14.58574896,
        "meta_eccentricity": 0.0001081,
        "meta_inclination": 98.1803,
        "meta_ra_of_asc_node": 73.2312,
        "meta_arg_of_pericenter": 76.2807,
        "meta_mean_anomaly": 76.5492,
        "meta_ephemeris_type": 0,
        "meta_classification_type": "U",
        "meta_norad_cat_id": 38012,
        "meta_element_set_no": 999,
        "meta_rev_at_epoch": 74684,
        "meta_bstar": 0.00014752426,
        "meta_mean_motion_dot": 6.41e-06,
        "meta_mean_motion_ddot": 0,
        "tle_line1": "1 38012U 11076F   25360.67868104  .00000641  00000+0  14752-3 0  9997",
        "tle_line2": "2 38012  98.1803  73.2312 0001081  76.2807  76.5492 14.58574896746842"
      },
      "geometry": {
        "type": "Point",
        "coordinates": [
          -83.35810450277032,
          70.00350079484349
        ]
      }
    },
    {
      "type": "Feature",
      "properties": {
        "norad_id": 38038,
        "name": "ZIYUAN 1-02C (ZY 1-02C)",
        "group": "resource",
        "lat": 56.0942995698607,
        "lon": 53.811931039180685,
        "alt_km": 755.7728311321307,
        "timestamp": "2025-12-26T19:22:38.550978+00:00",
        "meta_object_name": "ZIYUAN 1-02C (ZY 1-02C)",
        "meta_object_id": "2011-079A",
        "meta_epoch": "2025-12-26T16:28:27.931296",
        "meta_mean_motion": 14.38028638,
        "meta_eccentricity": 0.00075707,
        "meta_inclination": 98.4311,
        "meta_ra_of_asc_node": 66.4418,
        "meta_arg_of_pericenter": 101.8846,
        "meta_mean_anomaly": 49.4565,
        "meta_ephemeris_type": 0,
        "meta_classification_type": "U",
        "meta_norad_cat_id": 38038,
        "meta_element_set_no": 999,
        "meta_rev_at_epoch": 73441,
        "meta_bstar": 0.0002828575,
        "meta_mean_motion_dot": 8.13e-06,
        "meta_mean_motion_ddot": 0,
        "tle_line1": "1 38038U 11079A   25360.68643439  .00000813  00000+0  28286-3 0  9999",
        "tle_line2": "2 38038  98.4311  66.4418 0007570 101.8846  49.4565 14.38028638734411"
      },
      "geometry": {
        "type": "Point",
        "coordinates": [
          53.811931039180685,
          56.0942995698607
        ]
      }
    },
    {
      "type": "Feature",
      "properties": {
        "norad_id": 38338,
        "name": "ARIRANG-3 (KOMPSAT-3)",
        "group": "resource",
        "lat": 14.406569360085353,
        "lon": 137.6623757403098,
        "alt_km": 690.2815445010738,
        "timestamp": "2025-12-26T19:22:38.550988+00:00",
        "meta_object_name": "ARIRANG-3 (KOMPSAT-3)",
        "meta_object_id": "2012-025B",
        "meta_epoch": "2025-12-26T15:20:14.320032",
        "meta_mean_motion": 14.61730721,
        "meta_eccentricity": 0.00046543,
        "meta_inclination": 98.3342,
        "meta_ra_of_asc_node": 315.3347,
        "meta_arg_of_pericenter": 288.2565,
        "meta_mean_anomaly": 71.8129,
        "meta_ephemeris_type": 0,
        "meta_classification_type": "U",
        "meta_norad_cat_id": 38338,
        "meta_element_set_no": 999,
        "meta_rev_at_epoch": 72613,
        "meta_bstar": 0.00014194635,
        "meta_mean_motion_dot": 6.59e-06,
        "meta_mean_motion_ddot": 0,
        "tle_line1": "1 38338U 12025B   25360.63905463  .00000659  00000+0  14195-3 0  9999",
        "tle_line2": "2 38338  98.3342 315.3347 0004654 288.2565  71.8129 14.61730721726136"
      },
      "geometry": {
        "type": "Point",
        "coordinates": [
          137.6623757403098,
          14.406569360085353
        ]
      }
    },
    {
      "type": "Feature",
      "properties": {
        "norad_id": 38709,
        "name": "EXACTVIEW-1 (ADS-1B)",
        "group": "resource",
        "lat": 74.83149339894413,
        "lon": -34.90161375258686,
        "alt_km": 807.9244625788742,
        "timestamp": "2025-12-26T19:22:38.550999+00:00",
        "meta_object_name": "EXACTVIEW-1 (ADS-1B)",
        "meta_object_id": "2012-039C",
        "meta_epoch": "2025-12-26T13:50:35.905344",
        "meta_mean_motion": 14.24913533,
        "meta_eccentricity": 0.00100745,
        "meta_inclination": 98.9638,
        "meta_ra_of_asc_node": 109.2573,
        "meta_arg_of_pericenter": 312.4557,
        "meta_mean_anomaly": 47.5769,
        "meta_ephemeris_type": 0,
        "meta_classification_type": "U",
        "meta_norad_cat_id": 38709,
        "meta_element_set_no": 999,
        "meta_rev_at_epoch": 69812,
        "meta_bstar": 9.4102971e-05,
        "meta_mean_motion_dot": 1.73e-06,
        "meta_mean_motion_ddot": 0,
        "tle_line1": "1 38709U 12039C   25360.57680446  .00000173  00000+0  94103-4 0  9999",
        "tle_line2": "2 38709  98.9638 109.2573 0010074 312.4557  47.5769 14.24913533698127"
      },
      "geometry": {
        "type": "Point",
        "coordinates": [
          -34.90161375258686,
          74.83149339894413
        ]
      }
    }
  ]
}